[{"OBJECT_NAME":"STARLINK-31580","OBJECT_ID":"2024-065P","EPOCH":"2026-03-09T21:32:06.903168","MEAN_MOTION":15.30186944,"ECCENTRICITY":0.00012183,"INCLINATION":53.1598,"RA_OF_ASC_NODE":282.67,"ARG_OF_PERICENTER":83.949,"MEAN_ANOMALY":276.165,"EPHEMERIS_TYPE":0,"CLASSIFICATION_TYPE":"U","NORAD_CAT_ID":59434,"ELEMENT_SET_NO":999,"REV_AT_EPOCH":10893,"BSTAR":1.0215142e-5,"MEAN_MOTION_DOT":-5.7e-7,"MEAN_MOTION_DDOT":0},{"OBJECT_NAME":"OBJECT E","OBJECT_ID":"2024-092E","EPOCH":"2026-03-09T21:25:47.709120","MEAN_MOTION":15.32997986,"ECCENTRICITY":0.0008531,"INCLINATION":97.642,"RA_OF_ASC_NODE":198.2099,"ARG_OF_PERICENTER":142.2606,"MEAN_ANOMALY":217.9236,"EPHEMERIS_TYPE":0,"CLASSIFICATION_TYPE":"U","NORAD_CAT_ID":59777,"ELEMENT_SET_NO":999,"REV_AT_EPOCH":10051,"BSTAR":0.00078641119,"MEAN_MOTION_DOT":0.00025066,"MEAN_MOTION_DDOT":0}]
